NORAD_CAT_ID,OBJECT_NAME,OBJECT_TYPE,EPOCH,MEAN_MOTION,ECCENTRICITY,INCLINATION,RA_OF_ASC_NODE,ARG_OF_PERICENTER,MEAN_ANOMALY,BSTAR,MEAN_MOTION_DOT,MEAN_MOTION_DDOT,TLE_LINE0,TLE_LINE1,TLE_LINE2,SEMIMAJOR_AXIS,PERIOD,APOGEE,PERIGEE,DECAYED
52607.0,STARLINK-3947,PAYLOAD,2022-10-23 11:47:45,15.08861314,0.0001764,53.2186,60.1517,52.2662,307.849,0.00010895,1.447e-05,0.0,0 STARLINK-3947,1 52607U 22052K   22296.49149967  .00001447  00000-0  10895-3 0  9993,2 52607  53.2186  60.1517 0001764  52.2662 307.8490 15.08861314 24608,6917.815,95.436,540.901,538.46,0.0
52607.0,STARLINK-3947,PAYLOAD,2022-10-23 16:33:55,15.08854597,0.0001942,53.2187,59.2617,61.2378,298.8809,5.4401e-05,5.78e-06,0.0,0 STARLINK-3947,1 52607U 22052K   22296.69022480  .00000578  00000-0  54401-4 0  9991,2 52607  53.2187  59.2617 0001942  61.2378 298.8809 15.08854597 24632,6917.8359999999975,95.437,541.044,538.357,0.0
52607.0,STARLINK-3947,PAYLOAD,2022-10-24 10:03:10,15.08831808,0.0001846,53.2194,55.9926,46.6508,313.4638,2.6181e-05,1.28e-06,0.0,0 STARLINK-3947,1 52607U 22052K   22297.41887670  .00000128  00000-0  26181-4 0  9997,2 52607  53.2194  55.9926 0001846  46.6508 313.4638 15.08831808 25120,6917.905,95.438,541.047,538.493,0.0
52607.0,STARLINK-3947,PAYLOAD,2022-10-24 14:49:21,15.08816757,0.0001666999999999,53.2186,55.0963,46.1172,313.9957,-0.00014598,-2.609e-05,0.0,0 STARLINK-3947,1 52607U 22052K   22297.61761187 -.00002609  00000-0 -14598-3 0  9999,2 52607  53.2186  55.0963 0001667  46.1172 313.9957 15.08816757 25154,6917.951,95.439,540.97,538.663,0.0
52607.0,STARLINK-3947,PAYLOAD,2022-10-24 18:00:08,15.08816086,0.0001652,53.219,54.5024,44.8819,315.2307,-0.00016803,-2.959e-05,0.0,0 STARLINK-3947,1 52607U 22052K   22297.75009522 -.00002959  00000-0 -16803-3 0  9991,2 52607  53.2190  54.5024 0001652  44.8819 315.2307 15.08816086 24796,6917.953,95.439,540.961,538.6759999999998,0.0
52607.0,STARLINK-3947,PAYLOAD,2022-10-25 09:53:59,15.08830881,0.0001783,53.2189,51.5292,43.4548,316.6584,-0.00021884,-3.768e-05,0.0,0 STARLINK-3947,1 52607U 22052K   22298.41249489 -.00003768  00000-0 -21884-3 0  9997,2 52607  53.2189  51.5292 0001783  43.4548 316.6584 15.08830881 25272,6917.908,95.438,541.007,538.54,0.0
52607.0,STARLINK-3947,PAYLOAD,2022-10-25 16:15:31,15.08834299,0.0001764,53.219,50.3401,46.1413,313.9725,-0.00016513,-2.915e-05,0.0,0 STARLINK-3947,1 52607U 22052K   22298.67745194 -.00002915  00000-0 -16513-3 0  9995,2 52607  53.2190  50.3401 0001764  46.1413 313.9725 15.08834299 24939,6917.898,95.438,540.9830000000002,538.5419999999998,0.0
52607.0,STARLINK-3947,PAYLOAD,2022-10-26 11:20:09,15.08819684,0.0001776999999999,53.219,46.7719,41.0098,319.1027,0.00027073,4.021e-05,0.0,0 STARLINK-3947,1 52607U 22052K   22299.47233235  .00004021  00000-0  27073-3 0  9993,2 52607  53.2190  46.7719 0001777  41.0098 319.1027 15.08819684 25055,6917.941999999999,95.439,541.0369999999998,538.578,0.0
52607.0,STARLINK-3947,PAYLOAD,2022-10-26 16:06:18,15.08828316,0.0001699999999999,53.219,45.88,39.3563,320.7553,0.00027198,4.042e-05,0.0,0 STARLINK-3947,1 52607U 22052K   22299.67105003  .00004042  00000-0  27198-3 0  9997,2 52607  53.2190  45.8800 0001700  39.3563 320.7553 15.08828316 25086,6917.916,95.438,540.957,538.605,0.0
52607.0,STARLINK-3947,PAYLOAD,2022-10-27 09:35:32,15.08841711,0.000173,53.2197,42.6097,45.0681,315.0451,0.00024674,3.641e-05,0.0,0 STARLINK-3947,1 52607U 22052K   22300.39968742  .00003641  00000-0  24674-3 0  9996,2 52607  53.2197  42.6097 0001730  45.0681 315.0451 15.08841711 25194,6917.875,95.437,540.937,538.543,0.0
52607.0,STARLINK-3947,PAYLOAD,2022-10-27 15:57:05,15.08846407,0.0001747,53.2195,41.4199,42.7678,317.345,0.00023516,3.457e-05,0.0,0 STARLINK-3947,1 52607U 22052K   22300.66464501  .00003457  00000-0  23516-3 0  9999,2 52607  53.2195  41.4199 0001747  42.7678 317.3450 15.08846407 25236,6917.861,95.437,540.934,538.5169999999998,0.0
52607.0,STARLINK-3947,PAYLOAD,2022-10-27 23:54:01,15.08841941,0.0001814,53.2193,39.9335,42.2116,317.9015,0.00012329,1.675e-05,0.0,0 STARLINK-3947,1 52607U 22052K   22300.99585046  .00001675  00000-0  12329-3 0  9993,2 52607  53.2193  39.9335 0001814  42.2116 317.9015 15.08841941 25663,6917.874,95.437,540.994,538.485,0.0
52607.0,STARLINK-3947,PAYLOAD,2022-10-28 12:37:05,15.08854587,0.0001391,53.2186,37.5507,44.1785,315.9318,7.4544e-05,8.99e-06,0.0,0 STARLINK-3947,1 52607U 22052K   22301.52576030  .00000899  00000-0  74544-4 0  9991,2 52607  53.2186  37.5507 0001391  44.1785 315.9318 15.08854587 25364,6917.8359999999975,95.437,540.663,538.739,0.0
52607.0,STARLINK-3947,PAYLOAD,2022-10-28 15:47:52,15.08850193,0.0001896,53.2189,36.9591,40.0203,320.0928,5.446e-05,5.79e-06,0.0,0 STARLINK-3947,1 52607U 22052K   22301.65824339  .00000579  00000-0  54460-4 0  9993,2 52607  53.2189  36.9591 0001896  40.0203 320.0928 15.08850193 25388,6917.849,95.437,541.026,538.403,0.0
52607.0,STARLINK-3947,PAYLOAD,2022-10-28 23:44:47,15.08856136,0.0001895,53.2193,35.4725,41.0718,319.0416,8.5247e-05,1.069e-05,0.0,0 STARLINK-3947,1 52607U 22052K   22301.98943607  .00001069  00000-0  85247-4 0  9991,2 52607  53.2193  35.4725 0001895  41.0718 319.0416 15.08856136 25436,6917.831,95.437,541.007,538.385,0.0
52607.0,STARLINK-3947,PAYLOAD,2022-10-29 15:38:38,15.08851991,0.0001956999999999,53.2195,32.4992,44.0781,316.0367,4.9455e-07,-2.8e-06,0.0,0 STARLINK-3947,1 52607U 22052K   22302.65183625 -.00000280  00000-0  49455-6 0  9990,2 52607  53.2195  32.4992 0001957  44.0781 316.0367 15.08851991 25912,6917.844,95.437,541.063,538.355,0.0
52607.0,STARLINK-3947,PAYLOAD,2022-10-30 10:43:15,15.08853456,0.0001531999999999,53.2193,28.9281,39.2025,320.9078,4.9162e-05,4.95e-06,0.0,0 STARLINK-3947,1 52607U 22052K   22303.44670627  .00000495  00000-0  49162-4 0  9991,2 52607  53.2193  28.9281 0001532  39.2025 320.9078 15.08853456 25659,6917.839,95.437,540.764,538.644,0.0
52607.0,STARLINK-3947,PAYLOAD,2022-10-30 15:29:25,15.08843305,0.0001862,53.2195,28.0383,40.7828,319.3303,3.0732e-05,2.01e-06,0.0,0 STARLINK-3947,1 52607U 22052K   22303.64543286  .00000201  00000-0  30732-4 0  9991,2 52607  53.2195  28.0383 0001862  40.7828 319.3303 15.08843305 25687,6917.87,95.437,541.023,538.447,0.0
52607.0,STARLINK-3947,PAYLOAD,2022-10-31 12:09:28,15.08823102,0.0001901,53.2189,24.1732,44.5724,315.5421,-8.1103e-05,-1.578e-05,0.0,0 STARLINK-3947,1 52607U 22052K   22304.50657486 -.00001578  00000-0 -81103-4 0  9993,2 52607  53.2189  24.1732 0001901  44.5724 315.5421 15.08823102 25813,6917.932,95.439,541.112,538.482,0.0
52607.0,STARLINK-3947,PAYLOAD,2022-10-31 15:20:14,15.08819146,0.0001938,53.2186,23.5785,41.5606,318.5534,-0.00011092,-2.052e-05,0.0,0 STARLINK-3947,1 52607U 22052K   22304.63906006 -.00002052  00000-0 -11092-3 0  9999,2 52607  53.2186  23.5785 0001938  41.5606 318.5534 15.08819146 25830,6917.944,95.439,541.15,538.4680000000002,0.0
52607.0,STARLINK-3947,PAYLOAD,2022-11-01 07:14:05,15.08828137,0.0001798,53.2195,20.6042,36.2478,323.8635,2.4159e-05,9.6e-07,0.0,0 STARLINK-3947,1 52607U 22052K   22305.30145209  .00000096  00000-0  24159-4 0  9997,2 52607  53.2195  20.6042 0001798  36.2478 323.8635 15.08828137 26311,6917.917,95.438,541.025,538.538,0.0
52607.0,STARLINK-3947,PAYLOAD,2022-11-01 10:24:51,15.0883689,0.0001909,53.2194,20.0107,48.7401,311.3755,0.0001002,1.307e-05,0.0,0 STARLINK-3947,1 52607U 22052K   22305.43392605  .00001307  00000-0  10020-3 0  9992,2 52607  53.2194  20.0107 0001909  48.7401 311.3755 15.08836890 25953,6917.89,95.438,541.076,538.434,0.0
52607.0,STARLINK-3947,PAYLOAD,2022-11-01 15:11:00,15.08840834,0.0001999,53.2192,19.1183,35.5788,324.5337,0.00012475,1.698e-05,0.0,0 STARLINK-3947,1 52607U 22052K   22305.63264322  .00001698  00000-0  12475-3 0  9997,2 52607  53.2192  19.1183 0001999  35.5788 324.5337 15.08840834 26366,6917.878000000002,95.438,541.126,538.36,0.0
52607.0,STARLINK-3947,PAYLOAD,2022-11-02 11:51:02,15.08824947,0.0001995,53.219,15.2523,34.1723,325.9398,0.00017484,2.494e-05,0.0,0 STARLINK-3947,1 52607U 22052K   22306.49377882  .00002494  00000-0  17484-3 0  9998,2 52607  53.2190  15.2523 0001995  34.1723 325.9398 15.08824947 26492,6917.926,95.439,541.172,538.411,0.0
52607.0,STARLINK-3947,PAYLOAD,2022-11-02 13:26:25,15.08826352,0.000201,53.219,14.9548,34.3417,325.7705,0.00017838,2.551e-05,0.0,0 STARLINK-3947,1 52607U 22052K   22306.56001810  .00002551  00000-0  17838-3 0  9998,2 52607  53.2190  14.9548 0002010  34.3417 325.7705 15.08826352 26128,6917.922,95.438,541.178,538.3969999999998,0.0
52607.0,STARLINK-3947,PAYLOAD,2022-11-02 21:23:21,15.08835605,0.0002078,53.2193,13.4679,33.5981,326.5142,0.00011361,1.52e-05,0.0,0 STARLINK-3947,1 52607U 22052K   22306.89121603  .00001520  00000-0  11361-3 0  9997,2 52607  53.2193  13.4679 0002078  33.5981 326.5142 15.08835605 26553,6917.894,95.438,541.196,538.321,0.0
52607.0,STARLINK-3947,PAYLOAD,2022-11-03 13:17:12,15.08838024,0.0001991,53.2194,10.495,42.661,317.4537,-5.9740999999999976e-06,-3.83e-06,0.0,0 STARLINK-3947,1 52607U 22052K   22307.55362064 -.00000383  00000-0 -59741-5 0  9993,2 52607  53.2194  10.4950 0001991  42.6610 317.4537 15.08838024 26270,6917.886,95.438,541.129,538.374,0.0
52607.0,STARLINK-3947,PAYLOAD,2022-11-04 08:21:48,15.08857554,0.0002032,53.2194,6.9266,40.8834,319.231,0.00022808,3.345e-05,0.0,0 STARLINK-3947,1 52607U 22052K   22308.34847747  .00003345  00000-0  22808-3 0  9998,2 52607  53.2194   6.9266 0002032  40.8834 319.2310 15.08857554 26778,6917.8269999999975,95.436,541.097,538.286,0.0
52607.0,STARLINK-3947,PAYLOAD,2022-11-04 13:07:58,15.08849719,0.0002234,53.2193,6.0351,39.1884,320.9269,0.00015797,2.227e-05,0.0,0 STARLINK-3947,1 52607U 22052K   22308.54720318  .00002227  00000-0  15797-3 0  9991,2 52607  53.2193   6.0351 0002234  39.1884 320.9269 15.08849719 26421,6917.851,95.437,541.261,538.17,0.0
